[
  {
    "id": "3cdcd0b9-ea76-4d8b-a367-6555cd6b134c",
    "name": "Jimmie Duke",
    "address": {
      "street": "Gallatin Place",
      "city": "Ironton",
      "state": "Kansas",
      "zipcode": 26654
    }
  },
  {
    "id": "01b3f619-78c2-4eb0-b2c9-983a8139231b",
    "name": "Marisol Donovan",
    "address": {
      "street": "Division Avenue",
      "city": "Nelson",
      "state": "New Hampshire",
      "zipcode": 1555
    }
  },
  {
    "id": "69f00ab6-3dc8-4339-8b4a-dc9153cffa99",
    "name": "Lawanda Bryan",
    "address": {
      "street": "Denton Place",
      "city": "Rodman",
      "state": "Missouri",
      "zipcode": 35574
    }
  },
  {
    "id": "9d5a7651-9b04-4508-b5c2-16aca42f80c6",
    "name": "Lana Moody",
    "address": {
      "street": "Varanda Place",
      "city": "Bedias",
      "state": "Utah",
      "zipcode": 93408
    }
  },
  {
    "id": "69091d10-1c35-432c-95ff-1d58809f2c24",
    "name": "Daniel Bruce",
    "address": {
      "street": "Fenimore Street",
      "city": "Cetronia",
      "state": "Nebraska",
      "zipcode": 81897
    }
  },
  {
    "id": "f444e6c7-dfdc-4d52-9f52-fc9cde0b4cff",
    "name": "Oneill Pratt",
    "address": {
      "street": "Hausman Street",
      "city": "Inkerman",
      "state": "South Carolina",
      "zipcode": 38841
    }
  },
  {
    "id": "9631155a-bdc4-489c-a0b1-624d858c6111",
    "name": "Delaney Haley",
    "address": {
      "street": "Division Place",
      "city": "Comptche",
      "state": "Montana",
      "zipcode": 46436
    }
  },
  {
    "id": "05b58b8b-15c2-4c7b-a6d0-91510a00c6ae",
    "name": "Dee Ramsey",
    "address": {
      "street": "Portland Avenue",
      "city": "Galesville",
      "state": "Virginia",
      "zipcode": 25132
    }
  },
  {
    "id": "bef42ef8-feeb-4ad7-8140-45341ee22f6d",
    "name": "Robert Jacobson",
    "address": {
      "street": "Ditmars Street",
      "city": "Flintville",
      "state": "North Carolina",
      "zipcode": 95760
    }
  },
  {
    "id": "cd4f8d2f-5ad4-4a7f-81cd-7af35176d5d4",
    "name": "Maldonado Rodriquez",
    "address": {
      "street": "Jerome Avenue",
      "city": "Talpa",
      "state": "Wyoming",
      "zipcode": 53349
    }
  },
  {
    "id": "e1a1f4a6-f585-4603-b8d4-3520492837ed",
    "name": "Christian Hancock",
    "address": {
      "street": "Rutland Road",
      "city": "Rivera",
      "state": "Idaho",
      "zipcode": 97623
    }
  },
  {
    "id": "08bfdda3-990c-4e6e-940a-27ef57f86bc4",
    "name": "Boone Larson",
    "address": {
      "street": "Veranda Place",
      "city": "Epworth",
      "state": "Marshall Islands",
      "zipcode": 77606
    }
  },
  {
    "id": "1d3857b5-01ed-4b43-8ded-995f397216d6",
    "name": "Marci Berg",
    "address": {
      "street": "Royce Street",
      "city": "Oneida",
      "state": "Puerto Rico",
      "zipcode": 55689
    }
  },
  {
    "id": "8bd7df66-b0c4-475a-9dac-5cec3bc0fd4c",
    "name": "Kari Short",
    "address": {
      "street": "Leonard Street",
      "city": "Falconaire",
      "state": "Ohio",
      "zipcode": 30463
    }
  },
  {
    "id": "baac8572-c7f3-4a25-ae94-b25af232eb6b",
    "name": "Bertha York",
    "address": {
      "street": "Fanchon Place",
      "city": "Brownsville",
      "state": "Mississippi",
      "zipcode": 87068
    }
  },
  {
    "id": "70d192ac-5a5f-4a51-b9fb-6fcfc5f2fb44",
    "name": "Milagros Faulkner",
    "address": {
      "street": "Eaton Court",
      "city": "Evergreen",
      "state": "North Dakota",
      "zipcode": 42093
    }
  },
  {
    "id": "b1fb7722-5da3-43ae-865f-7bbe7c78c6a2",
    "name": "Tammi Everett",
    "address": {
      "street": "Eagle Street",
      "city": "Whipholt",
      "state": "Alabama",
      "zipcode": 64015
    }
  },
  {
    "id": "b861e5db-f48b-40d4-ab73-912e8e27f76b",
    "name": "Vicki Schwartz",
    "address": {
      "street": "Ocean Court",
      "city": "Watchtower",
      "state": "Hawaii",
      "zipcode": 78757
    }
  },
  {
    "id": "c0f25571-c845-454a-9481-7e7370ad7869",
    "name": "Oliver Rivas",
    "address": {
      "street": "Union Street",
      "city": "Grenelefe",
      "state": "Connecticut",
      "zipcode": 63964
    }
  },
  {
    "id": "b43d1d53-ff60-4c96-9d73-bff4d053cc46",
    "name": "Bianca Mendoza",
    "address": {
      "street": "Jackson Place",
      "city": "Bowden",
      "state": "Palau",
      "zipcode": 72022
    }
  },
  {
    "id": "2f05761f-90ec-4fcf-8283-9c8761c55e30",
    "name": "Melva Munoz",
    "address": {
      "street": "Kingsway Place",
      "city": "Chesapeake",
      "state": "Georgia",
      "zipcode": 78249
    }
  },
  {
    "id": "d794fdd7-fff3-4828-a01d-f909a938f047",
    "name": "Pugh Dudley",
    "address": {
      "street": "Nassau Street",
      "city": "Jenkinsville",
      "state": "Wisconsin",
      "zipcode": 5752
    }
  },
  {
    "id": "cda0aa87-e8b3-47e0-9c1e-50a2aece7c8d",
    "name": "Lowe Tillman",
    "address": {
      "street": "Clifford Place",
      "city": "Lorraine",
      "state": "Northern Mariana Islands",
      "zipcode": 33114
    }
  }
]